CCSDS_OMM_VERS = 2.0
CREATION_DATE  = 
ORIGINATOR     = 

OBJECT_NAME    = UNKNOWN
OBJECT_ID      = 
CENTER_NAME    = EARTH
REF_FRAME      = TEME
TIME_SYSTEM    = UTC
MEAN_ELEMENT_THEORY = SGP/SGP4

EPOCH          = 2025-11-13T11:37:55.056864
MEAN_MOTION    = 12.15647889
ECCENTRICITY   = .08642463
INCLINATION    = 83.2761
RA_OF_ASC_NODE = 36.9458
ARG_OF_PERICENTER = 331.3172
MEAN_ANOMALY   = 24.2832

EPHEMERIS_TYPE = 0
CLASSIFICATION_TYPE = U
NORAD_CAT_ID   = 270160
ELEMENT_SET_NO = 999
REV_AT_EPOCH   = 26347
BSTAR          = .92007651E-2
MEAN_MOTION_DOT = .2925E-4
MEAN_MOTION_DDOT = 0

CCSDS_OMM_VERS = 2.0
CREATION_DATE  = 
ORIGINATOR     = 

OBJECT_NAME    = UNKNOWN
OBJECT_ID      = 
CENTER_NAME    = EARTH
REF_FRAME      = TEME
TIME_SYSTEM    = UTC
MEAN_ELEMENT_THEORY = SGP/SGP4

EPOCH          = 2025-11-10T17:02:17.129472
MEAN_MOTION    = 12.76473221
ECCENTRICITY   = .00572278
INCLINATION    = 101.0962
RA_OF_ASC_NODE = 298.2541
ARG_OF_PERICENTER = 334.7798
MEAN_ANOMALY   = 25.0498

EPHEMERIS_TYPE = 0
CLASSIFICATION_TYPE = U
NORAD_CAT_ID   = 270161
ELEMENT_SET_NO = 999
REV_AT_EPOCH   = 27709
BSTAR          = .32329536E-2
MEAN_MOTION_DOT = .662E-5
MEAN_MOTION_DDOT = 0

CCSDS_OMM_VERS = 2.0
CREATION_DATE  = 
ORIGINATOR     = 

OBJECT_NAME    = UNKNOWN
OBJECT_ID      = 
CENTER_NAME    = EARTH
REF_FRAME      = TEME
TIME_SYSTEM    = UTC
MEAN_ELEMENT_THEORY = SGP/SGP4

EPOCH          = 2025-11-12T09:27:45.671904
MEAN_MOTION    = 12.99952953
ECCENTRICITY   = .00290049
INCLINATION    = 90.2441
RA_OF_ASC_NODE = 6.4225
ARG_OF_PERICENTER = 122.8380
MEAN_ANOMALY   = 237.5540

EPHEMERIS_TYPE = 0
CLASSIFICATION_TYPE = U
NORAD_CAT_ID   = 270164
ELEMENT_SET_NO = 999
REV_AT_EPOCH   = 28181
BSTAR          = -.20478155E-3
MEAN_MOTION_DOT = -.54E-6
MEAN_MOTION_DDOT = 0

CCSDS_OMM_VERS = 2.0
CREATION_DATE  = 
ORIGINATOR     = 

OBJECT_NAME    = UNKNOWN
OBJECT_ID      = 
CENTER_NAME    = EARTH
REF_FRAME      = TEME
TIME_SYSTEM    = UTC
MEAN_ELEMENT_THEORY = SGP/SGP4

EPOCH          = 2025-11-11T21:17:06.133056
MEAN_MOTION    = 12.95652037
ECCENTRICITY   = .0043513
INCLINATION    = 90.2423
RA_OF_ASC_NODE = 7.3990
ARG_OF_PERICENTER = 50.0696
MEAN_ANOMALY   = 310.4235

EPHEMERIS_TYPE = 0
CLASSIFICATION_TYPE = U
NORAD_CAT_ID   = 270165
ELEMENT_SET_NO = 999
REV_AT_EPOCH   = 28032
BSTAR          = .16282469E-2
MEAN_MOTION_DOT = .47E-5
MEAN_MOTION_DDOT = 0

CCSDS_OMM_VERS = 2.0
CREATION_DATE  = 
ORIGINATOR     = 

OBJECT_NAME    = UNKNOWN
OBJECT_ID      = 
CENTER_NAME    = EARTH
REF_FRAME      = TEME
TIME_SYSTEM    = UTC
MEAN_ELEMENT_THEORY = SGP/SGP4

EPOCH          = 2025-11-08T07:43:06.047328
MEAN_MOTION    = 14.31161844
ECCENTRICITY   = .000487
INCLINATION    = 98.7530
RA_OF_ASC_NODE = 327.8233
ARG_OF_PERICENTER = 357.9345
MEAN_ANOMALY   = 2.1816

EPHEMERIS_TYPE = 0
CLASSIFICATION_TYPE = U
NORAD_CAT_ID   = 270166
ELEMENT_SET_NO = 999
REV_AT_EPOCH   = 31020
BSTAR          = .20504504E-3
MEAN_MOTION_DOT = .496E-5
MEAN_MOTION_DDOT = 0

CCSDS_OMM_VERS = 2.0
CREATION_DATE  = 
ORIGINATOR     = 

OBJECT_NAME    = UNKNOWN
OBJECT_ID      = 
CENTER_NAME    = EARTH
REF_FRAME      = TEME
TIME_SYSTEM    = UTC
MEAN_ELEMENT_THEORY = SGP/SGP4

EPOCH          = 2025-11-12T07:21:28.729728
MEAN_MOTION    = 11.48031055
ECCENTRICITY   = .07049909
INCLINATION    = 65.7336
RA_OF_ASC_NODE = 166.4730
ARG_OF_PERICENTER = 204.1270
MEAN_ANOMALY   = 152.5095

EPHEMERIS_TYPE = 0
CLASSIFICATION_TYPE = U
NORAD_CAT_ID   = 270167
ELEMENT_SET_NO = 999
REV_AT_EPOCH   = 24960
BSTAR          = .18514479E-3
MEAN_MOTION_DOT = -.29E-6
MEAN_MOTION_DDOT = 0

CCSDS_OMM_VERS = 2.0
CREATION_DATE  = 
ORIGINATOR     = 

OBJECT_NAME    = UNKNOWN
OBJECT_ID      = 
CENTER_NAME    = EARTH
REF_FRAME      = TEME
TIME_SYSTEM    = UTC
MEAN_ELEMENT_THEORY = SGP/SGP4

EPOCH          = 2025-11-11T09:17:04.495776
MEAN_MOTION    = 14.38090093
ECCENTRICITY   = .00632173
INCLINATION    = 86.1997
RA_OF_ASC_NODE = 355.7129
ARG_OF_PERICENTER = 355.8337
MEAN_ANOMALY   = 4.2325

EPHEMERIS_TYPE = 0
CLASSIFICATION_TYPE = U
NORAD_CAT_ID   = 270168
ELEMENT_SET_NO = 999
REV_AT_EPOCH   = 31056
BSTAR          = .20573326E-2
MEAN_MOTION_DOT = .6398E-4
MEAN_MOTION_DDOT = 0

CCSDS_OMM_VERS = 2.0
CREATION_DATE  = 
ORIGINATOR     = 

OBJECT_NAME    = UNKNOWN
OBJECT_ID      = 
CENTER_NAME    = EARTH
REF_FRAME      = TEME
TIME_SYSTEM    = UTC
MEAN_ELEMENT_THEORY = SGP/SGP4

EPOCH          = 2025-11-12T12:39:36.719712
MEAN_MOTION    = 14.41319355
ECCENTRICITY   = .00142824
INCLINATION    = 65.0078
RA_OF_ASC_NODE = 45.8727
ARG_OF_PERICENTER = 276.9408
MEAN_ANOMALY   = 83.0057

EPHEMERIS_TYPE = 0
CLASSIFICATION_TYPE = U
NORAD_CAT_ID   = 270170
ELEMENT_SET_NO = 999
REV_AT_EPOCH   = 31249
BSTAR          = .1425217E-2
MEAN_MOTION_DOT = .4527E-4
MEAN_MOTION_DDOT = 0

CCSDS_OMM_VERS = 2.0
CREATION_DATE  = 
ORIGINATOR     = 

OBJECT_NAME    = UNKNOWN
OBJECT_ID      = 
CENTER_NAME    = EARTH
REF_FRAME      = TEME
TIME_SYSTEM    = UTC
MEAN_ELEMENT_THEORY = SGP/SGP4

EPOCH          = 2025-11-13T00:46:22.068768
MEAN_MOTION    = 14.45294193
ECCENTRICITY   = .00231676
INCLINATION    = 86.3754
RA_OF_ASC_NODE = 54.3589
ARG_OF_PERICENTER = 252.2398
MEAN_ANOMALY   = 107.6275

EPHEMERIS_TYPE = 0
CLASSIFICATION_TYPE = U
NORAD_CAT_ID   = 270172
ELEMENT_SET_NO = 999
REV_AT_EPOCH   = 31306
BSTAR          = .14128623E-2
MEAN_MOTION_DOT = .4993E-4
MEAN_MOTION_DDOT = 0

CCSDS_OMM_VERS = 2.0
CREATION_DATE  = 
ORIGINATOR     = 

OBJECT_NAME    = UNKNOWN
OBJECT_ID      = 
CENTER_NAME    = EARTH
REF_FRAME      = TEME
TIME_SYSTEM    = UTC
MEAN_ELEMENT_THEORY = SGP/SGP4

EPOCH          = 2025-11-13T14:22:15.316032
MEAN_MOTION    = 14.84682671
ECCENTRICITY   = .00025366
INCLINATION    = 86.6039
RA_OF_ASC_NODE = 78.4537
ARG_OF_PERICENTER = 110.6356
MEAN_ANOMALY   = 249.5140

EPHEMERIS_TYPE = 0
CLASSIFICATION_TYPE = U
NORAD_CAT_ID   = 270173
ELEMENT_SET_NO = 999
REV_AT_EPOCH   = 31973
BSTAR          = .13719044E-2
MEAN_MOTION_DOT = .1164E-3
MEAN_MOTION_DDOT = 0

CCSDS_OMM_VERS = 2.0
CREATION_DATE  = 
ORIGINATOR     = 

OBJECT_NAME    = UNKNOWN
OBJECT_ID      = 
CENTER_NAME    = EARTH
REF_FRAME      = TEME
TIME_SYSTEM    = UTC
MEAN_ELEMENT_THEORY = SGP/SGP4

EPOCH          = 2025-11-04T19:53:12.952896
MEAN_MOTION    = 12.20819670
ECCENTRICITY   = .08149971
INCLINATION    = 83.3379
RA_OF_ASC_NODE = 159.4346
ARG_OF_PERICENTER = 61.3934
MEAN_ANOMALY   = 306.6660

EPHEMERIS_TYPE = 0
CLASSIFICATION_TYPE = U
NORAD_CAT_ID   = 270175
ELEMENT_SET_NO = 999
REV_AT_EPOCH   = 26431
BSTAR          = .37670354E-2
MEAN_MOTION_DOT = .116E-4
MEAN_MOTION_DDOT = 0

CCSDS_OMM_VERS = 2.0
CREATION_DATE  = 
ORIGINATOR     = 

OBJECT_NAME    = UNKNOWN
OBJECT_ID      = 
CENTER_NAME    = EARTH
REF_FRAME      = TEME
TIME_SYSTEM    = UTC
MEAN_ELEMENT_THEORY = SGP/SGP4

EPOCH          = 2025-11-11T08:49:26.201568
MEAN_MOTION    = 13.04500008
ECCENTRICITY   = .00320433
INCLINATION    = 90.2502
RA_OF_ASC_NODE = 352.2513
ARG_OF_PERICENTER = 68.0355
MEAN_ANOMALY   = 292.4170

EPHEMERIS_TYPE = 0
CLASSIFICATION_TYPE = U
NORAD_CAT_ID   = 270176
ELEMENT_SET_NO = 999
REV_AT_EPOCH   = 28238
BSTAR          = -.80663145E-3
MEAN_MOTION_DOT = -.252E-5
MEAN_MOTION_DDOT = 0

CCSDS_OMM_VERS = 2.0
CREATION_DATE  = 
ORIGINATOR     = 

OBJECT_NAME    = UNKNOWN
OBJECT_ID      = 
CENTER_NAME    = EARTH
REF_FRAME      = TEME
TIME_SYSTEM    = UTC
MEAN_ELEMENT_THEORY = SGP/SGP4

EPOCH          = 2025-11-04T23:03:33.605568
MEAN_MOTION    = 12.53554042
ECCENTRICITY   = .00904785
INCLINATION    = 100.9076
RA_OF_ASC_NODE = 18.4502
ARG_OF_PERICENTER = 11.1482
MEAN_ANOMALY   = 349.1571

EPHEMERIS_TYPE = 0
CLASSIFICATION_TYPE = U
NORAD_CAT_ID   = 270177
ELEMENT_SET_NO = 999
REV_AT_EPOCH   = 27125
BSTAR          = .1633111E-2
MEAN_MOTION_DOT = .224E-5
MEAN_MOTION_DDOT = 0

CCSDS_OMM_VERS = 2.0
CREATION_DATE  = 
ORIGINATOR     = 

OBJECT_NAME    = UNKNOWN
OBJECT_ID      = 
CENTER_NAME    = EARTH
REF_FRAME      = TEME
TIME_SYSTEM    = UTC
MEAN_ELEMENT_THEORY = SGP/SGP4

EPOCH          = 2025-11-10T17:26:51.313920
MEAN_MOTION    = 14.32057330
ECCENTRICITY   = .00209038
INCLINATION    = 98.6872
RA_OF_ASC_NODE = 313.0750
ARG_OF_PERICENTER = 78.2806
MEAN_ANOMALY   = 282.0722

EPHEMERIS_TYPE = 0
CLASSIFICATION_TYPE = U
NORAD_CAT_ID   = 270178
ELEMENT_SET_NO = 999
REV_AT_EPOCH   = 30985
BSTAR          = .2571706E-3
MEAN_MOTION_DOT = .648E-5
MEAN_MOTION_DDOT = 0

CCSDS_OMM_VERS = 2.0
CREATION_DATE  = 
ORIGINATOR     = 

OBJECT_NAME    = UNKNOWN
OBJECT_ID      = 
CENTER_NAME    = EARTH
REF_FRAME      = TEME
TIME_SYSTEM    = UTC
MEAN_ELEMENT_THEORY = SGP/SGP4

EPOCH          = 2025-11-09T06:42:27.042624
MEAN_MOTION    = 14.38354873
ECCENTRICITY   = .00334807
INCLINATION    = 98.6234
RA_OF_ASC_NODE = 313.6767
ARG_OF_PERICENTER = 107.2136
MEAN_ANOMALY   = 253.2720

EPHEMERIS_TYPE = 0
CLASSIFICATION_TYPE = U
NORAD_CAT_ID   = 270179
ELEMENT_SET_NO = 999
REV_AT_EPOCH   = 31079
BSTAR          = .25502759E-3
MEAN_MOTION_DOT = .737E-5
MEAN_MOTION_DDOT = 0

CCSDS_OMM_VERS = 2.0
CREATION_DATE  = 
ORIGINATOR     = 

OBJECT_NAME    = UNKNOWN
OBJECT_ID      = 
CENTER_NAME    = EARTH
REF_FRAME      = TEME
TIME_SYSTEM    = UTC
MEAN_ELEMENT_THEORY = SGP/SGP4

EPOCH          = 2025-11-11T18:50:04.073568
MEAN_MOTION    = 12.92018282
ECCENTRICITY   = .06953428
INCLINATION    = 72.9834
RA_OF_ASC_NODE = 130.8775
ARG_OF_PERICENTER = 56.7663
MEAN_ANOMALY   = 309.8098

EPHEMERIS_TYPE = 0
CLASSIFICATION_TYPE = U
NORAD_CAT_ID   = 270181
ELEMENT_SET_NO = 999
REV_AT_EPOCH   = 27982
BSTAR          = .40979617E-2
MEAN_MOTION_DOT = .3277E-4
MEAN_MOTION_DDOT = 0

